start=new Date('2022-05-23T00:00:00.000Z').valueOf();
sats=[{"CLASSIFICATION_TYPE":"U","REF_FRAME":"TEME","PERIAPSIS":"546.052","TLE_LINE2":"2 48557  53.0528 238.2488 0001646  60.8953 299.2200 15.06406950 56143","COUNTRY_CODE":"US","MEAN_MOTION_DOT":"0.00002034","FILE":"3459268","REV_AT_EPOCH":"5614","RCS_SIZE":"LARGE","EPHEMERIS_TYPE":"0","RA_OF_ASC_NODE":"238.2488","PERIOD":"95.592","ECCENTRICITY":"0.00016460","MEAN_MOTION_DDOT":"0.0000000000000","OBJECT_TYPE":"PAYLOAD","LAUNCH_DATE":"2021-05-15","MEAN_ELEMENT_THEORY":"SGP4","ARG_OF_PERICENTER":"60.8953","INCLINATION":"53.0528","EPOCH":"2022-05-22T15:49:59.973024","OBJECT_ID":"2021-041E","CENTER_NAME":"EARTH","GP_ID":"204280828","TLE_LINE1":"1 48557U 21041E   22142.65972191  .00002034  00000-0  15536-3 0  9990","SITE":"AFETR","MEAN_MOTION":"15.06406950","TIME_SYSTEM":"UTC","NORAD_CAT_ID":"48557","ELEMENT_SET_NO":"999","SEMIMAJOR_AXIS":"6925.327","MEAN_ANOMALY":"299.2200","OBJECT_NAME":"STARLINK-2155","BSTAR":"0.00015536000000","DECAY_DATE":null,"APOAPSIS":"548.332"},{"EPHEMERIS_TYPE":"0","RA_OF_ASC_NODE":"238.5564","TLE_LINE2":"2 48558  53.0545 238.5564 0001459  77.6744 282.4408 15.06409430 55270","COUNTRY_CODE":"US","FILE":"3459268","MEAN_MOTION_DOT":"0.00001219","REV_AT_EPOCH":"5527","RCS_SIZE":"LARGE","REF_FRAME":"TEME","PERIAPSIS":"546.174","CLASSIFICATION_TYPE":"U","INCLINATION":"53.0545","EPOCH":"2022-05-22T14:09:08.897184","ARG_OF_PERICENTER":"77.6744","MEAN_ELEMENT_THEORY":"SGP4","MEAN_MOTION_DDOT":"0.0000000000000","PERIOD":"95.592","ECCENTRICITY":"0.00014590","OBJECT_TYPE":"PAYLOAD","LAUNCH_DATE":"2021-05-15","TLE_LINE1":"1 48558U 21041F   22142.58968631  .00001219  00000-0  10071-3 0  9990","SITE":"AFETR","CENTER_NAME":"EARTH","GP_ID":"204281576","OBJECT_ID":"2021-041F","MEAN_ANOMALY":"282.4408","OBJECT_NAME":"STARLINK-2166","DECAY_DATE":null,"BSTAR":"0.00010071000000","APOAPSIS":"548.195","ELEMENT_SET_NO":"999","SEMIMAJOR_AXIS":"6925.320","TIME_SYSTEM":"UTC","NORAD_CAT_ID":"48558","MEAN_MOTION":"15.06409430"},{"CENTER_NAME":"EARTH","GP_ID":"204253874","OBJECT_ID":"2021-041G","TLE_LINE1":"1 48559U 21041G   22142.49290745  .00002323  00000-0  17479-3 0  9991","SITE":"AFETR","TIME_SYSTEM":"UTC","NORAD_CAT_ID":"48559","MEAN_MOTION":"15.06400155","DECAY_DATE":null,"BSTAR":"0.00017479000000","APOAPSIS":"548.232","MEAN_ANOMALY":"296.0381","OBJECT_NAME":"STARLINK-2167","SEMIMAJOR_AXIS":"6925.348","ELEMENT_SET_NO":"999","PERIAPSIS":"546.194","REF_FRAME":"TEME","CLASSIFICATION_TYPE":"U","EPHEMERIS_TYPE":"0","RA_OF_ASC_NODE":"238.9805","TLE_LINE2":"2 48559  53.0551 238.9805 0001472  64.0759 296.0381 15.06400155 56560","COUNTRY_CODE":"US","RCS_SIZE":"LARGE","FILE":"3459039","REV_AT_EPOCH":"5656","MEAN_MOTION_DOT":"0.00002323","MEAN_ELEMENT_THEORY":"SGP4","OBJECT_TYPE":"PAYLOAD","MEAN_MOTION_DDOT":"0.0000000000000","PERIOD":"95.592","ECCENTRICITY":"0.00014720","LAUNCH_DATE":"2021-05-15","EPOCH":"2022-05-22T11:49:47.203680","INCLINATION":"53.0551","ARG_OF_PERICENTER":"64.0759"},{"INCLINATION":"53.0523","EPOCH":"2022-05-22T22:00:01.999584","ARG_OF_PERICENTER":"86.7353","MEAN_ELEMENT_THEORY":"SGP4","LAUNCH_DATE":"2021-05-15","OBJECT_TYPE":"PAYLOAD","PERIOD":"95.594","MEAN_MOTION_DDOT":"0.0000000000000","ECCENTRICITY":"0.00012330","RA_OF_ASC_NODE":"207.0853","EPHEMERIS_TYPE":"0","RCS_SIZE":"LARGE","REV_AT_EPOCH":"130","FILE":"3459268","MEAN_MOTION_DOT":"0.00000097","TLE_LINE2":"2 48561  53.0523 207.0853 0001233  86.7353 117.7920 15.06371118  1304","COUNTRY_CODE":"US","PERIAPSIS":"546.448","REF_FRAME":"TEME","CLASSIFICATION_TYPE":"U","DECAY_DATE":null,"BSTAR":"0.00002544000000","APOAPSIS":"548.156","MEAN_ANOMALY":"117.7920","OBJECT_NAME":"STARLINK-2186","SEMIMAJOR_AXIS":"6925.437","ELEMENT_SET_NO":"999","NORAD_CAT_ID":"48561","TIME_SYSTEM":"UTC","MEAN_MOTION":"15.06371118","SITE":"AFETR","TLE_LINE1":"1 48561U 21041J   22142.91668981  .00000097  00000-0  25440-4 0  9996","GP_ID":"204280079","CENTER_NAME":"EARTH","OBJECT_ID":"2021-041J"},{"CLASSIFICATION_TYPE":"U","PERIAPSIS":"546.345","REF_FRAME":"TEME","REV_AT_EPOCH":"5615","FILE":"3459268","MEAN_MOTION_DOT":"0.00000267","RCS_SIZE":"LARGE","TLE_LINE2":"2 48562  53.0542 238.0566 0001281  70.5282 289.5845 15.06393819 56155","COUNTRY_CODE":"US","RA_OF_ASC_NODE":"238.0566","EPHEMERIS_TYPE":"0","LAUNCH_DATE":"2021-05-15","ECCENTRICITY":"0.00012810","PERIOD":"95.593","MEAN_MOTION_DDOT":"0.0000000000000","OBJECT_TYPE":"PAYLOAD","MEAN_ELEMENT_THEORY":"SGP4","ARG_OF_PERICENTER":"70.5282","INCLINATION":"53.0542","EPOCH":"2022-05-22T16:48:23.546592","OBJECT_ID":"2021-041K","GP_ID":"204280329","CENTER_NAME":"EARTH","SITE":"AFETR","TLE_LINE1":"1 48562U 21041K   22142.70027253  .00000267  00000-0  36808-4 0  9994","MEAN_MOTION":"15.06393819","NORAD_CAT_ID":"48562","TIME_SYSTEM":"UTC","ELEMENT_SET_NO":"999","SEMIMAJOR_AXIS":"6925.368","MEAN_ANOMALY":"289.5845","OBJECT_NAME":"STARLINK-2187","DECAY_DATE":null,"APOAPSIS":"548.120","BSTAR":"0.00003680800000"},{"EPHEMERIS_TYPE":"0","RA_OF_ASC_NODE":"238.5767","COUNTRY_CODE":"US","TLE_LINE2":"2 48563  53.0538 238.5767 0001015 105.1163 254.9938 15.06395084 56130","RCS_SIZE":"LARGE","FILE":"3459268","REV_AT_EPOCH":"5613","MEAN_MOTION_DOT":"0.00001890","REF_FRAME":"TEME","PERIAPSIS":"546.526","CLASSIFICATION_TYPE":"U","INCLINATION":"53.0538","EPOCH":"2022-05-22T14:03:51.265728","ARG_OF_PERICENTER":"105.1163","MEAN_ELEMENT_THEORY":"SGP4","OBJECT_TYPE":"PAYLOAD","PERIOD":"95.592","MEAN_MOTION_DDOT":"0.0000000000000","ECCENTRICITY":"0.00010150","LAUNCH_DATE":"2021-05-15","TLE_LINE1":"1 48563U 21041L   22142.58601002  .00001890  00000-0  14577-3 0  9992","SITE":"AFETR","CENTER_NAME":"EARTH","GP_ID":"204281078","OBJECT_ID":"2021-041L","BSTAR":"0.00014577000000","DECAY_DATE":null,"APOAPSIS":"547.932","MEAN_ANOMALY":"254.9938","OBJECT_NAME":"STARLINK-2188","SEMIMAJOR_AXIS":"6925.364","ELEMENT_SET_NO":"999","TIME_SYSTEM":"UTC","NORAD_CAT_ID":"48563","MEAN_MOTION":"15.06395084"},{"OBJECT_TYPE":"PAYLOAD","ECCENTRICITY":"0.00014170","PERIOD":"95.592","MEAN_MOTION_DDOT":"0.0000000000000","LAUNCH_DATE":"2021-05-15","MEAN_ELEMENT_THEORY":"SGP4","ARG_OF_PERICENTER":"69.0517","INCLINATION":"53.0547","EPOCH":"2022-05-22T13:53:14.136576","CLASSIFICATION_TYPE":"U","REF_FRAME":"TEME","PERIAPSIS":"546.245","COUNTRY_CODE":"US","TLE_LINE2":"2 48564  53.0547 238.6137 0001417  69.0517 291.0624 15.06395894 56133","RCS_SIZE":"LARGE","MEAN_MOTION_DOT":"-0.00000277","FILE":"3459268","REV_AT_EPOCH":"5613","EPHEMERIS_TYPE":"0","RA_OF_ASC_NODE":"238.6137","MEAN_MOTION":"15.06395894","TIME_SYSTEM":"UTC","NORAD_CAT_ID":"48564","SEMIMAJOR_AXIS":"6925.361","ELEMENT_SET_NO":"999","DECAY_DATE":null,"APOAPSIS":"548.207","BSTAR":"0.00000028784000","MEAN_ANOMALY":"291.0624","OBJECT_NAME":"STARLINK-2190","OBJECT_ID":"2021-041M","CENTER_NAME":"EARTH","GP_ID":"204281324","TLE_LINE1":"1 48564U 21041M   22142.57863584 -.00000277  00000-0  28784-6 0  9994","SITE":"AFETR"},{"MEAN_MOTION_DDOT":"0.0000000000000","PERIOD":"95.592","ECCENTRICITY":"0.00016210","OBJECT_TYPE":"PAYLOAD","LAUNCH_DATE":"2021-05-15","MEAN_ELEMENT_THEORY":"SGP4","ARG_OF_PERICENTER":"92.9992","INCLINATION":"53.0537","EPOCH":"2022-05-22T13:47:55.365504","CLASSIFICATION_TYPE":"U","PERIAPSIS":"546.068","REF_FRAME":"TEME","COUNTRY_CODE":"US","TLE_LINE2":"2 48565  53.0537 238.6270 0001621  92.9992 267.1183 15.06407355 56130","MEAN_MOTION_DOT":"0.00000544","FILE":"3458680","REV_AT_EPOCH":"5613","RCS_SIZE":"LARGE","EPHEMERIS_TYPE":"0","RA_OF_ASC_NODE":"238.6270","MEAN_MOTION":"15.06407355","TIME_SYSTEM":"UTC","NORAD_CAT_ID":"48565","ELEMENT_SET_NO":"999","SEMIMAJOR_AXIS":"6925.326","MEAN_ANOMALY":"267.1183","OBJECT_NAME":"STARLINK-2191","BSTAR":"0.00005540100000","DECAY_DATE":null,"APOAPSIS":"548.314","OBJECT_ID":"2021-041N","CENTER_NAME":"EARTH","GP_ID":"204241189","TLE_LINE1":"1 48565U 21041N   22142.57494636  .00000544  00000-0  55401-4 0  9993","SITE":"AFETR"},{"PERIOD":"95.592","MEAN_MOTION_DDOT":"0.0000000000000","ECCENTRICITY":"0.00012810","OBJECT_TYPE":"PAYLOAD","LAUNCH_DATE":"2021-05-15","MEAN_ELEMENT_THEORY":"SGP4","ARG_OF_PERICENTER":"65.6476","INCLINATION":"53.0543","EPOCH":"2022-05-22T17:33:28.662336","CLASSIFICATION_TYPE":"U","PERIAPSIS":"546.329","REF_FRAME":"TEME","TLE_LINE2":"2 48566  53.0543 247.9174 0001281  65.6476 294.4647 15.06399300 56015","COUNTRY_CODE":"US","REV_AT_EPOCH":"5601","FILE":"3459268","MEAN_MOTION_DOT":"0.00000015","RCS_SIZE":"MEDIUM","EPHEMERIS_TYPE":"0","RA_OF_ASC_NODE":"247.9174","MEAN_MOTION":"15.06399300","TIME_SYSTEM":"UTC","NORAD_CAT_ID":"48566","ELEMENT_SET_NO":"999","SEMIMAJOR_AXIS":"6925.351","MEAN_ANOMALY":"294.4647","OBJECT_NAME":"STARLINK-2214","APOAPSIS":"548.103","DECAY_DATE":null,"BSTAR":"0.00001991500000","OBJECT_ID":"2021-041P","CENTER_NAME":"EARTH","GP_ID":"204280829","TLE_LINE1":"1 48566U 21041P   22142.73158174  .00000015  00000-0  19915-4 0  9999","SITE":"AFETR"},{"CLASSIFICATION_TYPE":"U","REF_FRAME":"TEME","PERIAPSIS":"546.277","TLE_LINE2":"2 48567  53.0553 247.5662 0001398  64.7140 295.3994 15.06389742 56027","COUNTRY_CODE":"US","RCS_SIZE":"LARGE","MEAN_MOTION_DOT":"0.00001530","FILE":"3459268","REV_AT_EPOCH":"5602","EPHEMERIS_TYPE":"0","RA_OF_ASC_NODE":"247.5662","OBJECT_TYPE":"PAYLOAD","PERIOD":"95.593","ECCENTRICITY":"0.00013980","MEAN_MOTION_DDOT":"0.0000000000000","LAUNCH_DATE":"2021-05-15","MEAN_ELEMENT_THEORY":"SGP4","ARG_OF_PERICENTER":"64.7140","EPOCH":"2022-05-22T19:26:17.563200","INCLINATION":"53.0553","OBJECT_ID":"2021-041Q","CENTER_NAME":"EARTH","GP_ID":"204281577","TLE_LINE1":"1 48567U 21041Q   22142.80992550  .00001530  00000-0  12161-3 0  9990","SITE":"AFETR","MEAN_MOTION":"15.06389742","TIME_SYSTEM":"UTC","NORAD_CAT_ID":"48567","SEMIMAJOR_AXIS":"6925.380","ELEMENT_SET_NO":"999","APOAPSIS":"548.213","DECAY_DATE":null,"BSTAR":"0.00012161000000","OBJECT_NAME":"STARLINK-2215","MEAN_ANOMALY":"295.3994"}];
